VNULEO-0001
1 00001U 26001.50000000  .00000000  00000-0  00000-0 0  9990
2 00001  20.0000   0.0000 0000000   0.0000   0.0000 14.29661356    10
VNULEO-0002
1 00002U 26001.50000000  .00000000  00000-0  00000-0 0  9990
2 00002  20.0000   0.0000 0000000   0.0000  36.0000 14.29661356    20
VNULEO-0003
1 00003U 26001.50000000  .00000000  00000-0  00000-0 0  9990
2 00003  20.0000   0.0000 0000000   0.0000  72.0000 14.29661356    30
VNULEO-0004
1 00004U 26001.50000000  .00000000  00000-0  00000-0 0  9990
2 00004  20.0000   0.0000 0000000   0.0000 108.0000 14.29661356    40
VNULEO-0005
1 00005U 26001.50000000  .00000000  00000-0  00000-0 0  9990
2 00005  20.0000   0.0000 0000000   0.0000 144.0000 14.29661356    50
VNULEO-0006
1 00006U 26001.50000000  .00000000  00000-0  00000-0 0  9990
2 00006  20.0000   0.0000 0000000   0.0000 180.0000 14.29661356    60
VNULEO-0007
1 00007U 26001.50000000  .00000000  00000-0  00000-0 0  9990
2 00007  20.0000   0.0000 0000000   0.0000 216.0000 14.29661356    70
VNULEO-0008
1 00008U 26001.50000000  .00000000  00000-0  00000-0 0  9990
2 00008  20.0000   0.0000 0000000   0.0000 252.0000 14.29661356    80
VNULEO-0009
1 00009U 26001.50000000  .00000000  00000-0  00000-0 0  9990
2 00009  20.0000   0.0000 0000000   0.0000 288.0000 14.29661356    90
VNULEO-0010
1 00010U 26001.50000000  .00000000  00000-0  00000-0 0  9990
2 00010  20.0000   0.0000 0000000   0.0000 324.0000 14.29661356   100
VNULEO-0011
1 00011U 26001.50000000  .00000000  00000-0  00000-0 0  9990
2 00011  20.0000  60.0000 0000000   0.0000   0.0000 14.29661356   110
VNULEO-0012
1 00012U 26001.50000000  .00000000  00000-0  00000-0 0  9990
2 00012  20.0000  60.0000 0000000   0.0000  36.0000 14.29661356   120
VNULEO-0013
1 00013U 26001.50000000  .00000000  00000-0  00000-0 0  9990
2 00013  20.0000  60.0000 0000000   0.0000  72.0000 14.29661356   130
VNULEO-0014
1 00014U 26001.50000000  .00000000  00000-0  00000-0 0  9990
2 00014  20.0000  60.0000 0000000   0.0000 108.0000 14.29661356   140
VNULEO-0015
1 00015U 26001.50000000  .00000000  00000-0  00000-0 0  9990
2 00015  20.0000  60.0000 0000000   0.0000 144.0000 14.29661356   150
VNULEO-0016
1 00016U 26001.50000000  .00000000  00000-0  00000-0 0  9990
2 00016  20.0000  60.0000 0000000   0.0000 180.0000 14.29661356   160
VNULEO-0017
1 00017U 26001.50000000  .00000000  00000-0  00000-0 0  9990
2 00017  20.0000  60.0000 0000000   0.0000 216.0000 14.29661356   170
VNULEO-0018
1 00018U 26001.50000000  .00000000  00000-0  00000-0 0  9990
2 00018  20.0000  60.0000 0000000   0.0000 252.0000 14.29661356   180
VNULEO-0019
1 00019U 26001.50000000  .00000000  00000-0  00000-0 0  9990
2 00019  20.0000  60.0000 0000000   0.0000 288.0000 14.29661356   190
VNULEO-0020
1 00020U 26001.50000000  .00000000  00000-0  00000-0 0  9990
2 00020  20.0000  60.0000 0000000   0.0000 324.0000 14.29661356   200
VNULEO-0021
1 00021U 26001.50000000  .00000000  00000-0  00000-0 0  9990
2 00021  20.0000 120.0000 0000000   0.0000   0.0000 14.29661356   210
VNULEO-0022
1 00022U 26001.50000000  .00000000  00000-0  00000-0 0  9990
2 00022  20.0000 120.0000 0000000   0.0000  36.0000 14.29661356   220
VNULEO-0023
1 00023U 26001.50000000  .00000000  00000-0  00000-0 0  9990
2 00023  20.0000 120.0000 0000000   0.0000  72.0000 14.29661356   230
VNULEO-0024
1 00024U 26001.50000000  .00000000  00000-0  00000-0 0  9990
2 00024  20.0000 120.0000 0000000   0.0000 108.0000 14.29661356   240
VNULEO-0025
1 00025U 26001.50000000  .00000000  00000-0  00000-0 0  9990
2 00025  20.0000 120.0000 0000000   0.0000 144.0000 14.29661356   250
VNULEO-0026
1 00026U 26001.50000000  .00000000  00000-0  00000-0 0  9990
2 00026  20.0000 120.0000 0000000   0.0000 180.0000 14.29661356   260
VNULEO-0027
1 00027U 26001.50000000  .00000000  00000-0  00000-0 0  9990
2 00027  20.0000 120.0000 0000000   0.0000 216.0000 14.29661356   270
VNULEO-0028
1 00028U 26001.50000000  .00000000  00000-0  00000-0 0  9990
2 00028  20.0000 120.0000 0000000   0.0000 252.0000 14.29661356   280
VNULEO-0029
1 00029U 26001.50000000  .00000000  00000-0  00000-0 0  9990
2 00029  20.0000 120.0000 0000000   0.0000 288.0000 14.29661356   290
VNULEO-0030
1 00030U 26001.50000000  .00000000  00000-0  00000-0 0  9990
2 00030  20.0000 120.0000 0000000   0.0000 324.0000 14.29661356   300
VNULEO-0031
1 00031U 26001.50000000  .00000000  00000-0  00000-0 0  9990
2 00031  20.0000 180.0000 0000000   0.0000   0.0000 14.29661356   310
VNULEO-0032
1 00032U 26001.50000000  .00000000  00000-0  00000-0 0  9990
2 00032  20.0000 180.0000 0000000   0.0000  36.0000 14.29661356   320
VNULEO-0033
1 00033U 26001.50000000  .00000000  00000-0  00000-0 0  9990
2 00033  20.0000 180.0000 0000000   0.0000  72.0000 14.29661356   330
VNULEO-0034
1 00034U 26001.50000000  .00000000  00000-0  00000-0 0  9990
2 00034  20.0000 180.0000 0000000   0.0000 108.0000 14.29661356   340
VNULEO-0035
1 00035U 26001.50000000  .00000000  00000-0  00000-0 0  9990
2 00035  20.0000 180.0000 0000000   0.0000 144.0000 14.29661356   350
VNULEO-0036
1 00036U 26001.50000000  .00000000  00000-0  00000-0 0  9990
2 00036  20.0000 180.0000 0000000   0.0000 180.0000 14.29661356   360
VNULEO-0037
1 00037U 26001.50000000  .00000000  00000-0  00000-0 0  9990
2 00037  20.0000 180.0000 0000000   0.0000 216.0000 14.29661356   370
VNULEO-0038
1 00038U 26001.50000000  .00000000  00000-0  00000-0 0  9990
2 00038  20.0000 180.0000 0000000   0.0000 252.0000 14.29661356   380
VNULEO-0039
1 00039U 26001.50000000  .00000000  00000-0  00000-0 0  9990
2 00039  20.0000 180.0000 0000000   0.0000 288.0000 14.29661356   390
VNULEO-0040
1 00040U 26001.50000000  .00000000  00000-0  00000-0 0  9990
2 00040  20.0000 180.0000 0000000   0.0000 324.0000 14.29661356   400
VNULEO-0041
1 00041U 26001.50000000  .00000000  00000-0  00000-0 0  9990
2 00041  20.0000 240.0000 0000000   0.0000   0.0000 14.29661356   410
VNULEO-0042
1 00042U 26001.50000000  .00000000  00000-0  00000-0 0  9990
2 00042  20.0000 240.0000 0000000   0.0000  36.0000 14.29661356   420
VNULEO-0043
1 00043U 26001.50000000  .00000000  00000-0  00000-0 0  9990
2 00043  20.0000 240.0000 0000000   0.0000  72.0000 14.29661356   430
VNULEO-0044
1 00044U 26001.50000000  .00000000  00000-0  00000-0 0  9990
2 00044  20.0000 240.0000 0000000   0.0000 108.0000 14.29661356   440
VNULEO-0045
1 00045U 26001.50000000  .00000000  00000-0  00000-0 0  9990
2 00045  20.0000 240.0000 0000000   0.0000 144.0000 14.29661356   450
VNULEO-0046
1 00046U 26001.50000000  .00000000  00000-0  00000-0 0  9990
2 00046  20.0000 240.0000 0000000   0.0000 180.0000 14.29661356   460
VNULEO-0047
1 00047U 26001.50000000  .00000000  00000-0  00000-0 0  9990
2 00047  20.0000 240.0000 0000000   0.0000 216.0000 14.29661356   470
VNULEO-0048
1 00048U 26001.50000000  .00000000  00000-0  00000-0 0  9990
2 00048  20.0000 240.0000 0000000   0.0000 252.0000 14.29661356   480
VNULEO-0049
1 00049U 26001.50000000  .00000000  00000-0  00000-0 0  9990
2 00049  20.0000 240.0000 0000000   0.0000 288.0000 14.29661356   490
VNULEO-0050
1 00050U 26001.50000000  .00000000  00000-0  00000-0 0  9990
2 00050  20.0000 240.0000 0000000   0.0000 324.0000 14.29661356   500
VNULEO-0051
1 00051U 26001.50000000  .00000000  00000-0  00000-0 0  9990
2 00051  20.0000 300.0000 0000000   0.0000   0.0000 14.29661356   510
VNULEO-0052
1 00052U 26001.50000000  .00000000  00000-0  00000-0 0  9990
2 00052  20.0000 300.0000 0000000   0.0000  36.0000 14.29661356   520
VNULEO-0053
1 00053U 26001.50000000  .00000000  00000-0  00000-0 0  9990
2 00053  20.0000 300.0000 0000000   0.0000  72.0000 14.29661356   530
VNULEO-0054
1 00054U 26001.50000000  .00000000  00000-0  00000-0 0  9990
2 00054  20.0000 300.0000 0000000   0.0000 108.0000 14.29661356   540
VNULEO-0055
1 00055U 26001.50000000  .00000000  00000-0  00000-0 0  9990
2 00055  20.0000 300.0000 0000000   0.0000 144.0000 14.29661356   550
VNULEO-0056
1 00056U 26001.50000000  .00000000  00000-0  00000-0 0  9990
2 00056  20.0000 300.0000 0000000   0.0000 180.0000 14.29661356   560
VNULEO-0057
1 00057U 26001.50000000  .00000000  00000-0  00000-0 0  9990
2 00057  20.0000 300.0000 0000000   0.0000 216.0000 14.29661356   570
VNULEO-0058
1 00058U 26001.50000000  .00000000  00000-0  00000-0 0  9990
2 00058  20.0000 300.0000 0000000   0.0000 252.0000 14.29661356   580
VNULEO-0059
1 00059U 26001.50000000  .00000000  00000-0  00000-0 0  9990
2 00059  20.0000 300.0000 0000000   0.0000 288.0000 14.29661356   590
VNULEO-0060
1 00060U 26001.50000000  .00000000  00000-0  00000-0 0  9990
2 00060  20.0000 300.0000 0000000   0.0000 324.0000 14.29661356   600
